{
  "norad_id": 65429,
  "name": "STARLINK-35014",
  "history": [
    {
      "epoch": "2026-03-28T20:24:07.164288",
      "apogee_km": 476.02089897447786,
      "perigee_km": 474.3628045920768,
      "latitude_deg": -45.17664895698439,
      "longitude_deg": 84.5079603199847,
      "semi_major_axis_km": 6853.328851783277,
      "eccentricity": 0.00012097,
      "inclination_deg": 53.1577,
      "raan_deg": 143.6393,
      "arg_perigee_deg": 69.9931,
      "mean_anomaly_deg": 290.12,
      "mean_motion_rev_day": 15.30207776
    }
  ]
}